EUTELSAT QUANTUM        
1 49056U 21069B   25343.14695394  .00000128  00000+0  00000+0 0  9999
2 49056   0.0132  12.1818 0003762 259.1599 267.4033  1.00270774 16023
EUTELSAT KONNECT VHTS   
1 53765U 22110A   25343.28517222  .00000019  00000+0  00000+0 0  9996
2 53765   0.0635 102.5978 0002613 135.6510 305.3988  1.00270775  4927
EUTELSAT HOTBIRD 13F    
1 54048U 22134A   25343.06877615  .00000089  00000+0  00000+0 0  9995
2 54048   0.0489 292.5872 0002159  60.3329 122.9214  1.00271707 11478
EUTELSAT HOTBIRD 13G    
1 54225U 22146A   25343.00739060  .00000089  00000+0  00000+0 0  9990
2 54225   0.0487 236.9876 0001665 310.6292 266.0423  1.00269396  5555
EUTELSAT 10B            
1 54259U 22157A   25343.28517222  .00000070  00000+0  00000+0 0  9993
2 54259   0.0614  98.4433 0001494  78.8034  13.6704  1.00265933 11122
EUTELSAT 36D            
1 59346U 24059A   25343.42981948  .00000000  00000+0  00000+0 0  9997
2 59346   0.0177 347.0483 0000449 336.6605 305.3028  1.00268610  6246
